{"fetched_at":"2026-07-16T17:46:26.516Z","source":"https://celestrak.org/NORAD/elements/gp.php?NAME=GHGSAT&FORMAT=JSON","constellation":"ghgsat","records":[{"OBJECT_NAME":"GHGSAT-C1","OBJECT_ID":"2020-061G","EPOCH":"2026-07-15T05:28:01.341120","CLASSIFICATION_TYPE":"U","MEAN_MOTION":15.73451186,"ECCENTRICITY":0.00009708,"INCLINATION":97.2099,"RA_OF_ASC_NODE":282.3149,"ARG_OF_PERICENTER":177.1051,"MEAN_ANOMALY":183.0219,"EPHEMERIS_TYPE":0,"NORAD_CAT_ID":46278,"ELEMENT_SET_NO":999,"REV_AT_EPOCH":32788,"BSTAR":0.00020990661,"MEAN_MOTION_DOT":0.0002903,"MEAN_MOTION_DDOT":0},{"OBJECT_NAME":"GHGSAT-C2","OBJECT_ID":"2021-006DA","EPOCH":"2026-07-16T02:27:59.215680","CLASSIFICATION_TYPE":"U","MEAN_MOTION":15.3811444,"ECCENTRICITY":0.00066756,"INCLINATION":97.2129,"RA_OF_ASC_NODE":243.8751,"ARG_OF_PERICENTER":73.3003,"MEAN_ANOMALY":286.8975,"EPHEMERIS_TYPE":0,"NORAD_CAT_ID":47509,"ELEMENT_SET_NO":999,"REV_AT_EPOCH":30429,"BSTAR":0.000094975528,"MEAN_MOTION_DOT":0.00003484,"MEAN_MOTION_DDOT":0},{"OBJECT_NAME":"GHGSAT-C3","OBJECT_ID":"2022-057F","EPOCH":"2026-07-16T06:09:56.243808","CLASSIFICATION_TYPE":"U","MEAN_MOTION":15.34685907,"ECCENTRICITY":0.00062168,"INCLINATION":97.6635,"RA_OF_ASC_NODE":344.0146,"ARG_OF_PERICENTER":31.8271,"MEAN_ANOMALY":328.3345,"EPHEMERIS_TYPE":0,"NORAD_CAT_ID":52737,"ELEMENT_SET_NO":999,"REV_AT_EPOCH":22999,"BSTAR":0.000098735301,"MEAN_MOTION_DOT":0.00003234,"MEAN_MOTION_DDOT":0},{"OBJECT_NAME":"GHGSAT-C5","OBJECT_ID":"2022-057N","EPOCH":"2026-07-16T07:06:37.003104","CLASSIFICATION_TYPE":"U","MEAN_MOTION":15.34663549,"ECCENTRICITY":0.0006922,"INCLINATION":97.6721,"RA_OF_ASC_NODE":345.663,"ARG_OF_PERICENTER":28.6158,"MEAN_ANOMALY":331.5462,"EPHEMERIS_TYPE":0,"NORAD_CAT_ID":52744,"ELEMENT_SET_NO":999,"REV_AT_EPOCH":23000,"BSTAR":0.00010684938,"MEAN_MOTION_DOT":0.00003505,"MEAN_MOTION_DDOT":0},{"OBJECT_NAME":"GHGSAT-C4","OBJECT_ID":"2022-057Q","EPOCH":"2026-07-16T08:13:41.096064","CLASSIFICATION_TYPE":"U","MEAN_MOTION":15.34673775,"ECCENTRICITY":0.00060468,"INCLINATION":97.6562,"RA_OF_ASC_NODE":342.9057,"ARG_OF_PERICENTER":15.3696,"MEAN_ANOMALY":344.7729,"EPHEMERIS_TYPE":0,"NORAD_CAT_ID":52746,"ELEMENT_SET_NO":999,"REV_AT_EPOCH":23001,"BSTAR":0.00010185952,"MEAN_MOTION_DOT":0.00003338,"MEAN_MOTION_DDOT":0},{"OBJECT_NAME":"GHGSAT-C8","OBJECT_ID":"2023-054J","EPOCH":"2026-07-16T06:39:40.743360","CLASSIFICATION_TYPE":"U","MEAN_MOTION":15.53791805,"ECCENTRICITY":0.00027772,"INCLINATION":97.2961,"RA_OF_ASC_NODE":107.01,"ARG_OF_PERICENTER":357.4993,"MEAN_ANOMALY":2.6246,"EPHEMERIS_TYPE":0,"NORAD_CAT_ID":56186,"ELEMENT_SET_NO":999,"REV_AT_EPOCH":18295,"BSTAR":0.0001392855,"MEAN_MOTION_DOT":0.00008837,"MEAN_MOTION_DDOT":0},{"OBJECT_NAME":"GHGSAT-C6","OBJECT_ID":"2023-054AC","EPOCH":"2026-07-16T05:51:03.229632","CLASSIFICATION_TYPE":"U","MEAN_MOTION":15.53766729,"ECCENTRICITY":0.00033865,"INCLINATION":97.3022,"RA_OF_ASC_NODE":107.6799,"ARG_OF_PERICENTER":300.9605,"MEAN_ANOMALY":59.1316,"EPHEMERIS_TYPE":0,"NORAD_CAT_ID":56204,"ELEMENT_SET_NO":999,"REV_AT_EPOCH":18296,"BSTAR":0.00013982835,"MEAN_MOTION_DOT":0.00008864,"MEAN_MOTION_DDOT":0},{"OBJECT_NAME":"GHGSAT-C7","OBJECT_ID":"2023-054AH","EPOCH":"2026-07-16T04:19:22.538208","CLASSIFICATION_TYPE":"U","MEAN_MOTION":15.50457762,"ECCENTRICITY":0.00049321,"INCLINATION":97.2971,"RA_OF_ASC_NODE":105.9271,"ARG_OF_PERICENTER":299.0761,"MEAN_ANOMALY":60.9996,"EPHEMERIS_TYPE":0,"NORAD_CAT_ID":56209,"ELEMENT_SET_NO":999,"REV_AT_EPOCH":18288,"BSTAR":0.00011404877,"MEAN_MOTION_DOT":0.00006401,"MEAN_MOTION_DDOT":0},{"OBJECT_NAME":"GHGSAT-C12","OBJECT_ID":"2025-135B","EPOCH":"2026-07-16T06:32:46.610016","CLASSIFICATION_TYPE":"U","MEAN_MOTION":15.20448736,"ECCENTRICITY":0.00063685,"INCLINATION":97.4772,"RA_OF_ASC_NODE":311.8283,"ARG_OF_PERICENTER":78.1815,"MEAN_ANOMALY":282.0135,"EPHEMERIS_TYPE":0,"NORAD_CAT_ID":64529,"ELEMENT_SET_NO":999,"REV_AT_EPOCH":5924,"BSTAR":0.000081956934,"MEAN_MOTION_DOT":0.00001719,"MEAN_MOTION_DDOT":0},{"OBJECT_NAME":"GHGSAT-C13","OBJECT_ID":"2025-135W","EPOCH":"2026-07-16T06:14:08.097216","CLASSIFICATION_TYPE":"U","MEAN_MOTION":15.21409005,"ECCENTRICITY":0.00018465,"INCLINATION":97.4805,"RA_OF_ASC_NODE":312.4325,"ARG_OF_PERICENTER":66.7372,"MEAN_ANOMALY":293.4058,"EPHEMERIS_TYPE":0,"NORAD_CAT_ID":64548,"ELEMENT_SET_NO":999,"REV_AT_EPOCH":5927,"BSTAR":0.00013449593,"MEAN_MOTION_DOT":0.00002948,"MEAN_MOTION_DDOT":0}]}
