GHGSAT-C1               
1 46278U 20061G   26196.22779330  .00029030  00000+0  20991-3 0  9990
2 46278  97.2099 282.3149 0000970 177.1051 183.0219 15.73451186327885
GHGSAT-C2               
1 47509U 21006DA  26197.10276870  .00003484  00000+0  94976-4 0  9997
2 47509  97.2129 243.8751 0006675  73.3003 286.8975 15.38114440304291
GHGSAT-C3               
1 52737U 22057F   26197.25690097  .00003234  00000+0  98735-4 0  9990
2 52737  97.6635 344.0146 0006216  31.8271 328.3345 15.34685907229998
GHGSAT-C5               
1 52744U 22057N   26197.29626161  .00003505  00000+0  10685-3 0  9991
2 52744  97.6721 345.6630 0006922  28.6158 331.5462 15.34663549230007
GHGSAT-C4               
1 52746U 22057Q   26197.34283676  .00003338  00000+0  10186-3 0  9999
2 52746  97.6562 342.9057 0006046  15.3696 344.7729 15.34673775230017
GHGSAT-C8               
1 56186U 23054J   26197.27755490  .00008837  00000+0  13929-3 0  9996
2 56186  97.2961 107.0100 0002777 357.4993   2.6246 15.53791805182953
GHGSAT-C6               
1 56204U 23054AC  26197.24378738  .00008864  00000+0  13983-3 0  9990
2 56204  97.3022 107.6799 0003386 300.9605  59.1316 15.53766729182966
GHGSAT-C7               
1 56209U 23054AH  26197.18012197  .00006401  00000+0  11405-3 0  9994
2 56209  97.2971 105.9271 0004932 299.0761  60.9996 15.50457762182884
GHGSAT-C12              
1 64529U 25135B   26197.27276169  .00001719  00000+0  81957-4 0  9998
2 64529  97.4772 311.8283 0006368  78.1815 282.0135 15.20448736 59244
GHGSAT-C13              
1 64548U 25135W   26197.25981594  .00002948  00000+0  13450-3 0  9999
2 64548  97.4805 312.4325 0001846  66.7372 293.4058 15.21409005 59273
